OBJECT A                
1 60745U 24153A   24329.86667010  .00016681  00000+0  93999-3 0  9994
2 60745  97.6226  87.0824 0014369 348.6155  11.4748 15.13189438 13248
